*******************************************************************************
Ephemeris / WWW_USER Mon Mar 10 06:49:32 2025 Pasadena, USA      / Horizons    
*******************************************************************************
Target body name: (2018 VS8)                      {source: JPL#8}
Center body name: Earth (399)                     {source: DE441}
Center-site name: Mauna Kea
*******************************************************************************
Start time      : A.D. 2018-Sep-03 04:45:00.0000 UT      
Stop  time      : A.D. 2018-Sep-03 15:57:00.0000 UT      
Step-size       : 1 minutes
*******************************************************************************
Target pole/equ : undefined
Target radii    : undefined                                                    
Center geodetic : 204.5278, 19.8260847, 4.21024   {E-lon(deg),Lat(deg),Alt(km)}
Center cylindric: 204.5278, 6006.35451, 2151.0229 {E-lon(deg),Dxy(km),Dz(km)}
Center pole/equ : ITRF93                          {East-longitude positive}
Center radii    : 6378.137, 6378.137, 6356.752 km {Equator_a, b, pole_c}       
Target primary  : Sun
Vis. interferer : MOON (R_eq= 1737.400) km        {source: DE441}
Rel. light bend : Sun                             {source: DE441}
Rel. lght bnd GM: 1.3271E+11 km^3/s^2                                          
Small-body perts: Yes                             {source: SB441-N16}
Atmos refraction: NO (AIRLESS)
RA format       : HMS
Time format     : CAL 
Calendar mode   : Mixed Julian/Gregorian
RTS-only print  : NO       
EOP file        : eop.250307.p250603                                           
EOP coverage    : DATA-BASED 1962-JAN-20 TO 2025-MAR-07. PREDICTS-> 2025-JUN-02
Units conversion: 1 au= 149597870.700 km, c= 299792.458 km/s, 1 day= 86400.0 s 
Table cut-offs 1: Elevation (-90.0deg=NO ),Airmass (>38.000=NO), Daylight (YES)
Table cut-offs 2: Solar elongation (  0.0,180.0=NO ),Local Hour Angle( 0.0=NO )
Table cut-offs 3: RA/DEC angular rate (     0.0=NO )                           
*******************************************************************************
Initial IAU76/J2000 heliocentric ecliptic osculating elements (au, days, deg.):
  EPOCH=  2458433.5 ! 2018-Nov-11.00 (TDB)         Residual RMS= .33953        
   EC= .5263784885368822   QR= .9373233613851428   TP= 2458465.1575556668      
   OM= 53.89076972236643   W=  33.71683445616237   IN= 3.430463171034721       
  Equivalent ICRF heliocentric cartesian coordinates (au, au/d):
   X= 6.888560011548344E-01  Y= 6.928655939663307E-01  Z= 2.929974091538562E-01
  VX=-1.813811938800288E-02 VY= 8.693003909227039E-03 VZ= 5.111678677431928E-03
Asteroid physical parameters (km, seconds, rotational period in hours):        
   GM= n.a.                RAD= n.a.               ROTPER= n.a.                
   H= 27.2                 G= .150                 B-V= n.a.                   
                           ALBEDO= n.a.            STYP= n.a.                  
*******************************************************************************
 Date__(UT)__HR:MN     R.A._________(ICRF)_________DEC
******************************************************
$$SOE
 2018-Sep-03 04:45 C   01 13 10.314208 -00 56 05.49871
 2018-Sep-03 04:46 C   01 13 10.348513 -00 56 05.51882
 2018-Sep-03 04:47 C   01 13 10.382801 -00 56 05.53895
 2018-Sep-03 04:48 C   01 13 10.417073 -00 56 05.55907
 2018-Sep-03 04:49 C   01 13 10.451327 -00 56 05.57921
 2018-Sep-03 04:50 C   01 13 10.485565 -00 56 05.59936
 2018-Sep-03 04:51 C   01 13 10.519786 -00 56 05.61951
 2018-Sep-03 04:52 C   01 13 10.553989 -00 56 05.63966
 2018-Sep-03 04:53 C   01 13 10.588176 -00 56 05.65983
 2018-Sep-03 04:54 C   01 13 10.622346 -00 56 05.68000
 2018-Sep-03 04:55 C   01 13 10.656498 -00 56 05.70018
 2018-Sep-03 04:56 C   01 13 10.690634 -00 56 05.72037
 2018-Sep-03 04:57 C   01 13 10.724752 -00 56 05.74056
 2018-Sep-03 04:58 C   01 13 10.758853 -00 56 05.76076
 2018-Sep-03 04:59 N   01 13 10.792936 -00 56 05.78097
 2018-Sep-03 05:00 N   01 13 10.827003 -00 56 05.80118
 2018-Sep-03 05:01 N   01 13 10.861052 -00 56 05.82141
 2018-Sep-03 05:02 N   01 13 10.895083 -00 56 05.84163
 2018-Sep-03 05:03 N   01 13 10.929097 -00 56 05.86187
 2018-Sep-03 05:04 N   01 13 10.963094 -00 56 05.88211
 2018-Sep-03 05:05 N   01 13 10.997073 -00 56 05.90236
 2018-Sep-03 05:06 N   01 13 11.031035 -00 56 05.92262
 2018-Sep-03 05:07 N   01 13 11.064979 -00 56 05.94288
 2018-Sep-03 05:08 N   01 13 11.098905 -00 56 05.96315
 2018-Sep-03 05:09 N   01 13 11.132814 -00 56 05.98343
 2018-Sep-03 05:10 N   01 13 11.166705 -00 56 06.00371
 2018-Sep-03 05:11 N   01 13 11.200579 -00 56 06.02400
 2018-Sep-03 05:12 N   01 13 11.234435 -00 56 06.04430
 2018-Sep-03 05:13 N   01 13 11.268273 -00 56 06.06460
 2018-Sep-03 05:14 N   01 13 11.302093 -00 56 06.08491
 2018-Sep-03 05:15 N   01 13 11.335895 -00 56 06.10523
 2018-Sep-03 05:16 N   01 13 11.369679 -00 56 06.12555
 2018-Sep-03 05:17 N   01 13 11.403446 -00 56 06.14589
 2018-Sep-03 05:18 N   01 13 11.437194 -00 56 06.16622
 2018-Sep-03 05:19 N   01 13 11.470925 -00 56 06.18657
 2018-Sep-03 05:20 N   01 13 11.504637 -00 56 06.20692
 2018-Sep-03 05:21 N   01 13 11.538332 -00 56 06.22728
 2018-Sep-03 05:22 N   01 13 11.572008 -00 56 06.24764
 2018-Sep-03 05:23 N   01 13 11.605667 -00 56 06.26801
 2018-Sep-03 05:24 N   01 13 11.639307 -00 56 06.28839
 2018-Sep-03 05:25 A   01 13 11.672929 -00 56 06.30877
 2018-Sep-03 05:26 A   01 13 11.706533 -00 56 06.32916
 2018-Sep-03 05:27 A   01 13 11.740118 -00 56 06.34956
 2018-Sep-03 05:28 A   01 13 11.773686 -00 56 06.36996
 2018-Sep-03 05:29 A   01 13 11.807235 -00 56 06.39038
 2018-Sep-03 05:30 A   01 13 11.840766 -00 56 06.41079
 2018-Sep-03 05:31 A   01 13 11.874278 -00 56 06.43122
 2018-Sep-03 05:32 A   01 13 11.907772 -00 56 06.45165
 2018-Sep-03 05:33 A   01 13 11.941248 -00 56 06.47208
 2018-Sep-03 05:34 A   01 13 11.974705 -00 56 06.49252
 2018-Sep-03 05:35 A   01 13 12.008144 -00 56 06.51297
 2018-Sep-03 05:36 A   01 13 12.041564 -00 56 06.53343
 2018-Sep-03 05:37 A   01 13 12.074966 -00 56 06.55389
 2018-Sep-03 05:38 A   01 13 12.108349 -00 56 06.57436
 2018-Sep-03 05:39 A   01 13 12.141714 -00 56 06.59483
 2018-Sep-03 05:40 A   01 13 12.175060 -00 56 06.61532
 2018-Sep-03 05:41 A   01 13 12.208388 -00 56 06.63580
 2018-Sep-03 05:42 A   01 13 12.241697 -00 56 06.65630
 2018-Sep-03 05:43 A   01 13 12.274987 -00 56 06.67680
 2018-Sep-03 05:44 A   01 13 12.308259 -00 56 06.69730
 2018-Sep-03 05:45 A   01 13 12.341512 -00 56 06.71782
 2018-Sep-03 05:46 A   01 13 12.374746 -00 56 06.73833
 2018-Sep-03 05:47 A   01 13 12.407961 -00 56 06.75886
 2018-Sep-03 05:48 A   01 13 12.441158 -00 56 06.77939
 2018-Sep-03 05:49 A   01 13 12.474336 -00 56 06.79993
 2018-Sep-03 05:50 A   01 13 12.507495 -00 56 06.82047
 2018-Sep-03 05:51     01 13 12.540635 -00 56 06.84102
 2018-Sep-03 05:52     01 13 12.573757 -00 56 06.86158
 2018-Sep-03 05:53     01 13 12.606859 -00 56 06.88214
 2018-Sep-03 05:54     01 13 12.639943 -00 56 06.90271
 2018-Sep-03 05:55     01 13 12.673008 -00 56 06.92328
 2018-Sep-03 05:56     01 13 12.706054 -00 56 06.94386
 2018-Sep-03 05:57     01 13 12.739080 -00 56 06.96445
 2018-Sep-03 05:58     01 13 12.772088 -00 56 06.98504
 2018-Sep-03 05:59     01 13 12.805077 -00 56 07.00564
 2018-Sep-03 06:00     01 13 12.838047 -00 56 07.02624
 2018-Sep-03 06:01     01 13 12.870998 -00 56 07.04685
 2018-Sep-03 06:02     01 13 12.903930 -00 56 07.06747
 2018-Sep-03 06:03     01 13 12.936843 -00 56 07.08809
 2018-Sep-03 06:04     01 13 12.969737 -00 56 07.10872
 2018-Sep-03 06:05     01 13 13.002611 -00 56 07.12935
 2018-Sep-03 06:06     01 13 13.035467 -00 56 07.14999
 2018-Sep-03 06:07     01 13 13.068303 -00 56 07.17064
 2018-Sep-03 06:08     01 13 13.101120 -00 56 07.19129
 2018-Sep-03 06:09     01 13 13.133918 -00 56 07.21195
 2018-Sep-03 06:10     01 13 13.166697 -00 56 07.23261
 2018-Sep-03 06:11     01 13 13.199457 -00 56 07.25328
 2018-Sep-03 06:12     01 13 13.232198 -00 56 07.27395
 2018-Sep-03 06:13     01 13 13.264919 -00 56 07.29463
 2018-Sep-03 06:14     01 13 13.297621 -00 56 07.31532
 2018-Sep-03 06:15     01 13 13.330304 -00 56 07.33601
 2018-Sep-03 06:16     01 13 13.362968 -00 56 07.35671
 2018-Sep-03 06:17     01 13 13.395612 -00 56 07.37741
 2018-Sep-03 06:18     01 13 13.428238 -00 56 07.39812
 2018-Sep-03 06:19     01 13 13.460843 -00 56 07.41884
 2018-Sep-03 06:20     01 13 13.493430 -00 56 07.43956
 2018-Sep-03 06:21     01 13 13.525997 -00 56 07.46028
 2018-Sep-03 06:22     01 13 13.558545 -00 56 07.48102
 2018-Sep-03 06:23     01 13 13.591074 -00 56 07.50175
 2018-Sep-03 06:24     01 13 13.623583 -00 56 07.52250
 2018-Sep-03 06:25     01 13 13.656073 -00 56 07.54324
 2018-Sep-03 06:26     01 13 13.688544 -00 56 07.56400
 2018-Sep-03 06:27     01 13 13.720995 -00 56 07.58476
 2018-Sep-03 06:28     01 13 13.753427 -00 56 07.60552
 2018-Sep-03 06:29     01 13 13.785839 -00 56 07.62629
 2018-Sep-03 06:30     01 13 13.818233 -00 56 07.64707
 2018-Sep-03 06:31     01 13 13.850606 -00 56 07.66785
 2018-Sep-03 06:32     01 13 13.882961 -00 56 07.68864
 2018-Sep-03 06:33     01 13 13.915296 -00 56 07.70943
 2018-Sep-03 06:34     01 13 13.947611 -00 56 07.73023
 2018-Sep-03 06:35     01 13 13.979907 -00 56 07.75103
 2018-Sep-03 06:36     01 13 14.012184 -00 56 07.77184
 2018-Sep-03 06:37  r  01 13 14.044441 -00 56 07.79265
 2018-Sep-03 06:38     01 13 14.076679 -00 56 07.81347
 2018-Sep-03 06:39     01 13 14.108897 -00 56 07.83430
 2018-Sep-03 06:40     01 13 14.141096 -00 56 07.85513
 2018-Sep-03 06:41     01 13 14.173276 -00 56 07.87596
 2018-Sep-03 06:42     01 13 14.205436 -00 56 07.89680
 2018-Sep-03 06:43     01 13 14.237577 -00 56 07.91765
 2018-Sep-03 06:44     01 13 14.269698 -00 56 07.93850
 2018-Sep-03 06:45     01 13 14.301800 -00 56 07.95935
 2018-Sep-03 06:46     01 13 14.333882 -00 56 07.98021
 2018-Sep-03 06:47     01 13 14.365945 -00 56 08.00108
